{"type": "FeatureCollection", "features": [ {"type": "Feature", "properties": {"norad_id": 41556, "name": "ZIYUAN 3-02 (ZY 3-02)", "group": "resource", "lat": 65.29809064437595, "lon": -89.48083509997397, "alt_km": 494.71745983347864, "timestamp": "2025-12-26T03:50:11.745077+00:00", "meta": {"OBJECT_NAME": "ZIYUAN 3-02 (ZY 3-02)", "OBJECT_ID": "2016-033A", "EPOCH": "2025-12-25T21:01:25.054752", "MEAN_MOTION": 15.2124074, "ECCENTRICITY": 0.0011483, "INCLINATION": 97.4023, "RA_OF_ASC_NODE": 73.8226, "ARG_OF_PERICENTER": 197.1964, "MEAN_ANOMALY": 162.8884, "EPHEMERIS_TYPE": 0, "CLASSIFICATION_TYPE": "U", "NORAD_CAT_ID": 41556, "ELEMENT_SET_NO": 999, "REV_AT_EPOCH": 53163, "BSTAR": 0.00034981, "MEAN_MOTION_DOT": 7.758e-05, "MEAN_MOTION_DDOT": 0}, "tle": {"line1": "1 41556U 16033A   25359.87598443  .00007758  00000+0  34981-3 0  9990", "line2": "2 41556  97.4023  73.8226 0011483 197.1964 162.8884 15.21240740531631"}}, "geometry": {"type": "Point", "coordinates": [-89.48083509997397, 65.29809064437595]}}, {"type": "Feature", "properties": {"norad_id": 41599, "name": "CARTOSAT-2C", "group": "resource", "lat": -41.0222877742121, "lon": 63.82865733623312, "alt_km": 511.2669882581058, "timestamp": "2025-12-26T03:50:11.745087+00:00", "meta": {"OBJECT_NAME": "CARTOSAT-2C", "OBJECT_ID": "2016-040A", "EPOCH": "2025-12-25T20:06:52.855200", "MEAN_MOTION": 15.19232539, "ECCENTRICITY": 0.0010656, "INCLINATION": 97.4746, "RA_OF_ASC_NODE": 56.9516, "ARG_OF_PERICENTER": 21.2752, "MEAN_ANOMALY": 338.8924, "EPHEMERIS_TYPE": 0, "CLASSIFICATION_TYPE": "U", "NORAD_CAT_ID": 41599, "ELEMENT_SET_NO": 999, "REV_AT_EPOCH": 52739, "BSTAR": 0.00019777, "MEAN_MOTION_DOT": 4.103e-05, "MEAN_MOTION_DDOT": 0}, "tle": {"line1": "1 41599U 16040A   25359.83811175  .00004103  00000+0  19777-3 0  9998", "line2": "2 41599  97.4746  56.9516 0010656  21.2752 338.8924 15.19232539527399"}}, "geometry": {"type": "Point", "coordinates": [63.82865733623312, -41.0222877742121]}}, {"type": "Feature", "properties": {"norad_id": 41601, "name": "SKYSAT-C1", "group": "resource", "lat": -54.971946427443335, "lon": 46.48403343500851, "alt_km": 473.8804773197253, "timestamp": "2025-12-26T03:50:11.745097+00:00", "meta": {"OBJECT_NAME": "SKYSAT-C1", "OBJECT_ID": "2016-040C", "EPOCH": "2025-12-25T15:32:40.638048", "MEAN_MOTION": 15.3282008, "ECCENTRICITY": 8.71e-05, "INCLINATION": 96.9805, "RA_OF_ASC_NODE": 35.9335, "ARG_OF_PERICENTER": 317.384, "MEAN_ANOMALY": 42.7336, "EPHEMERIS_TYPE": 0, "CLASSIFICATION_TYPE": "U", "NORAD_CAT_ID": 41601, "ELEMENT_SET_NO": 999, "REV_AT_EPOCH": 53125, "BSTAR": 0.00031619, "MEAN_MOTION_DOT": 9.953e-05, "MEAN_MOTION_DDOT": 0}, "tle": {"line1": "1 41601U 16040C   25359.64769257  .00009953  00000+0  31619-3 0  9991", "line2": "2 41601  96.9805  35.9335 0000871 317.3840  42.7336 15.32820080531251"}}, "geometry": {"type": "Point", "coordinates": [46.48403343500851, -54.971946427443335]}}, {"type": "Feature", "properties": {"norad_id": 41603, "name": "LAPAN-A3", "group": "resource", "lat": 34.87513317589443, "lon": -7.7860451521036484, "alt_km": 471.340503052189, "timestamp": "2025-12-26T03:50:11.745108+00:00", "meta": {"OBJECT_NAME": "LAPAN-A3", "OBJECT_ID": "2016-040E", "EPOCH": "2025-12-25T21:24:41.904288", "MEAN_MOTION": 15.31659521, "ECCENTRICITY": 0.0008653, "INCLINATION": 97.1436, "RA_OF_ASC_NODE": 356.9706, "ARG_OF_PERICENTER": 279.0928, "MEAN_ANOMALY": 80.9335, "EPHEMERIS_TYPE": 0, "CLASSIFICATION_TYPE": "U", "NORAD_CAT_ID": 41603, "ELEMENT_SET_NO": 999, "REV_AT_EPOCH": 52827, "BSTAR": 0.00015744, "MEAN_MOTION_DOT": 4.743e-05, "MEAN_MOTION_DDOT": 0}, "tle": {"line1": "1 41603U 16040E   25359.89215167  .00004743  00000+0  15744-3 0  9999", "line2": "2 41603  97.1436 356.9706 0008653 279.0928  80.9335 15.31659521528271"}}, "geometry": {"type": "Point", "coordinates": [-7.7860451521036484, 34.87513317589443]}}, {"type": "Feature", "properties": {"norad_id": 41604, "name": "BIROS", "group": "resource", "lat": -82.55861833815075, "lon": 140.43430249748928, "alt_km": 297.3475865660457, "timestamp": "2025-12-26T03:50:11.745119+00:00", "meta": {"OBJECT_NAME": "BIROS", "OBJECT_ID": "2016-040F", "EPOCH": "2025-12-25T01:07:09.917184", "MEAN_MOTION": 15.94683958, "ECCENTRICITY": 0.00039046, "INCLINATION": 97.0657, "RA_OF_ASC_NODE": 31.0163, "ARG_OF_PERICENTER": 124.4663, "MEAN_ANOMALY": 235.6982, "EPHEMERIS_TYPE": 0, "CLASSIFICATION_TYPE": "U", "NORAD_CAT_ID": 41604, "ELEMENT_SET_NO": 999, "REV_AT_EPOCH": 53068, "BSTAR": 0.0006151692, "MEAN_MOTION_DOT": 0.00232464, "MEAN_MOTION_DDOT": 2.2718232e-05}, "tle": {"line1": "1 41604U 16040F   25359.04664256  .00232464  22718-4  61517-3 0  9991", "line2": "2 41604  97.0657  31.0163 0003904 124.4663 235.6982 15.94683958530682"}}, "geometry": {"type": "Point", "coordinates": [140.43430249748928, -82.55861833815075]}}, {"type": "Feature", "properties": {"norad_id": 41727, "name": "GAOFEN-3", "group": "resource", "lat": -1.55488932995657, "lon": -174.6889386817996, "alt_km": 754.7949594238262, "timestamp": "2025-12-26T03:50:11.745129+00:00", "meta": {"OBJECT_NAME": "GAOFEN-3", "OBJECT_ID": "2016-049A", "EPOCH": "2025-12-25T20:20:15.709056", "MEAN_MOTION": 14.42216052, "ECCENTRICITY": 0.0001077, "INCLINATION": 98.4038, "RA_OF_ASC_NODE": 5.2333, "ARG_OF_PERICENTER": 56.1867, "MEAN_ANOMALY": 303.9425, "EPHEMERIS_TYPE": 0, "CLASSIFICATION_TYPE": "U", "NORAD_CAT_ID": 41727, "ELEMENT_SET_NO": 999, "REV_AT_EPOCH": 49366, "BSTAR": -1.5614e-05, "MEAN_MOTION_DOT": -9.5e-07, "MEAN_MOTION_DDOT": 0}, "tle": {"line1": "1 41727U 16049A   25359.84740404 -.00000095  00000+0 -15614-4 0  9992", "line2": "2 41727  98.4038   5.2333 0001077  56.1867 303.9425 14.42216052493660"}}, "geometry": {"type": "Point", "coordinates": [-174.6889386817996, -1.55488932995657]}}, {"type": "Feature", "properties": {"norad_id": 41771, "name": "SKYSAT-C4", "group": "resource", "lat": -11.123777531831273, "lon": 26.067991995661217, "alt_km": 443.9872476809878, "timestamp": "2025-12-26T03:50:11.745139+00:00", "meta": {"OBJECT_NAME": "SKYSAT-C4", "OBJECT_ID": "2016-058B", "EPOCH": "2025-12-25T15:25:49.908000", "MEAN_MOTION": 15.42614539, "ECCENTRICITY": 0.0002597, "INCLINATION": 96.9363, "RA_OF_ASC_NODE": 24.2043, "ARG_OF_PERICENTER": 122.5329, "MEAN_ANOMALY": 237.6171, "EPHEMERIS_TYPE": 0, "CLASSIFICATION_TYPE": "U", "NORAD_CAT_ID": 41771, "ELEMENT_SET_NO": 999, "REV_AT_EPOCH": 51866, "BSTAR": 0.00035539, "MEAN_MOTION_DOT": 0.00015394, "MEAN_MOTION_DDOT": 0}, "tle": {"line1": "1 41771U 16058B   25359.64293875  .00015394  00000+0  35539-3 0  9997", "line2": "2 41771  96.9363  24.2043 0002597 122.5329 237.6171 15.42614539518663"}}, "geometry": {"type": "Point", "coordinates": [26.067991995661217, -11.123777531831273]}}, {"type": "Feature", "properties": {"norad_id": 41772, "name": "SKYSAT-C5", "group": "resource", "lat": -40.53485806201708, "lon": -142.74583640276686, "alt_km": 467.43214173076103, "timestamp": "2025-12-26T03:50:11.745149+00:00", "meta": {"OBJECT_NAME": "SKYSAT-C5", "OBJECT_ID": "2016-058C", "EPOCH": "2025-12-25T15:55:07.252896", "MEAN_MOTION": 15.34107914, "ECCENTRICITY": 0.0004015, "INCLINATION": 97.0737, "RA_OF_ASC_NODE": 42.874, "ARG_OF_PERICENTER": 228.3767, "MEAN_ANOMALY": 131.7134, "EPHEMERIS_TYPE": 0, "CLASSIFICATION_TYPE": "U", "NORAD_CAT_ID": 41772, "ELEMENT_SET_NO": 999, "REV_AT_EPOCH": 51714, "BSTAR": 0.00030794, "MEAN_MOTION_DOT": 0.00010094, "MEAN_MOTION_DDOT": 0}, "tle": {"line1": "1 41772U 16058C   25359.66327839  .00010094  00000+0  30794-3 0  9998", "line2": "2 41772  97.0737  42.8740 0004015 228.3767 131.7134 15.34107914517149"}}, "geometry": {"type": "Point", "coordinates": [-142.74583640276686, -40.53485806201708]}}, {"type": "Feature", "properties": {"norad_id": 41773, "name": "SKYSAT-C2", "group": "resource", "lat": 31.34427737305635, "lon": 19.804950659471842, "alt_km": 450.2162009486392, "timestamp": "2025-12-26T03:50:11.745160+00:00", "meta": {"OBJECT_NAME": "SKYSAT-C2", "OBJECT_ID": "2016-058D", "EPOCH": "2025-12-25T15:12:14.992704", "MEAN_MOTION": 15.37557399, "ECCENTRICITY": 0.0002701, "INCLINATION": 97.0352, "RA_OF_ASC_NODE": 23.6144, "ARG_OF_PERICENTER": 355.0273, "MEAN_ANOMALY": 5.0945, "EPHEMERIS_TYPE": 0, "CLASSIFICATION_TYPE": "U", "NORAD_CAT_ID": 41773, "ELEMENT_SET_NO": 999, "REV_AT_EPOCH": 51834, "BSTAR": 0.00033324, "MEAN_MOTION_DOT": 0.00012209, "MEAN_MOTION_DDOT": 0}, "tle": {"line1": "1 41773U 16058D   25359.63350686  .00012209  00000+0  33324-3 0  9994", "line2": "2 41773  97.0352  23.6144 0002701 355.0273   5.0945 15.37557399518343"}}, "geometry": {"type": "Point", "coordinates": [19.804950659471842, 31.34427737305635]}}, {"type": "Feature", "properties": {"norad_id": 41774, "name": "SKYSAT-C3", "group": "resource", "lat": -28.00449561827459, "lon": -150.42496833966734, "alt_km": 438.0196860332944, "timestamp": "2025-12-26T03:50:11.745170+00:00", "meta": {"OBJECT_NAME": "SKYSAT-C3", "OBJECT_ID": "2016-058E", "EPOCH": "2025-12-25T16:03:24.261120", "MEAN_MOTION": 15.44855882, "ECCENTRICITY": 0.0002142, "INCLINATION": 96.9285, "RA_OF_ASC_NODE": 32.8147, "ARG_OF_PERICENTER": 106.7265, "MEAN_ANOMALY": 253.422, "EPHEMERIS_TYPE": 0, "CLASSIFICATION_TYPE": "U", "NORAD_CAT_ID": 41774, "ELEMENT_SET_NO": 999, "REV_AT_EPOCH": 51925, "BSTAR": 0.00039494, "MEAN_MOTION_DOT": 0.00018467, "MEAN_MOTION_DDOT": 0}, "tle": {"line1": "1 41774U 16058E   25359.66903080  .00018467  00000+0  39494-3 0  9996", "line2": "2 41774  96.9285  32.8147 0002142 106.7265 253.4220 15.44855882519255"}}, "geometry": {"type": "Point", "coordinates": [-150.42496833966734, -28.00449561827459]}}]}